ONEWEB-0086             
1 45456U 20020AJ  24076.82459487  .00000681  00000+0  18862-2 0  9995
2 45456  87.9038 184.5694 0001929  91.1805 268.9544 13.11416388194821
ONEWEB-0088             
1 45457U 20020AK  24076.80185882 -.00000112  00000+0 -35251-3 0  9992
2 45457  87.9036 184.5427 0001966 103.0414 257.0933 13.11418491194754
ONEWEB-0102             
1 47258U 20100A   24076.76542510 -.00000223  00000+0 -65627-3 0  9995
2 47258  87.9025 154.3756 0001878 105.8147 254.3188 13.12441412156859
ONEWEB-0109             
1 47259U 20100B   24076.77336162 -.00000345  00000+0 -99368-3 0  9995
2 47259  87.9024 154.3374 0001821 106.4976 253.6352 13.12442137156681
ONEWEB-0110             
1 47260U 20100C   24077.25461256 -.00000047  00000+0 -16507-3 0  9997
2 47260  87.9016 154.2526 0001785 104.2667 255.8660 13.12444432156916
ONEWEB-0111             
1 47261U 20100D   24076.75430952  .00000318  00000+0  84854-3 0  9990
2 47261  87.9023 154.3437 0001845 104.8063 255.3270 13.12441099156682
ONEWEB-0114             
1 47262U 20100E   24077.24189929 -.00000417  00000+0 -11934-2 0  9991
2 47262  87.9018 154.2667 0001979 120.5566 239.5758 13.12442758156703
ONEWEB-0117             
1 47263U 20100F   24076.77653739 -.00000329  00000+0 -94951-3 0  9997
2 47263  87.9024 154.3301 0001880 102.4000 257.7339 13.12443068156656
